{
  "type": "FeatureCollection",
  "features": [
    {
      "type": "Feature",
      "geometry": {
        "type": "Polygon",
        "coordinates": [
          [
            [
              121.61668286553635,
              25.002517433970937
            ],
            [
              121.61560715210373,
              25.00275638165104
            ],
            [
              121.61417286752783,
              25.00209210594899
            ],
            [
              121.61374047291343,
              25.001083738128457
            ],
            [
              121.61550169000373,
              25.000347767763657
            ],
            [
              121.61612391639966,
              25.001112412209167
            ],
            [
              121.61670395795738,
              25.002522212928127
            ],
            [
              121.6166090420653,
              25.002536549802002
            ],
            [
              121.61668286553635,
              25.002517433970937
            ]
          ]
        ]
      },
      "properties": {
        "district": "深坑區",
        "business_district": "新北市商圈聯合發展協會",
        "chairman_of_the_board": "黃建強",
        "tel": "09399800900",
        "addr": "新北市深坑區深坑街3巷2號2樓",
        "area": "新北"
      }
    },
    {
      "type": "Feature",
      "geometry": {
        "type": "Polygon",
        "coordinates": [
          [
            [
              121.35147007201653,
              24.95287281721471
            ],
            [
              121.34741082975148,
              24.952684770876175
            ],
            [
              121.34691453553432,
              24.951039353161676
            ],
            [
              121.34867749111555,
              24.950132685026603
            ],
            [
              121.35127007285354,
              24.951751250871595
            ],
            [
              121.35150710889803,
              24.952886249085537
            ],
            [
              121.35147007201653,
              24.95287281721471
            ]
          ]
        ]
      },
      "properties": {
        "district": "鶯歌區",
        "business_district": "鶯歌商圈",
        "chairman_of_the_board": "張素燕",
        "tel": "09361707930",
        "addr": "新北市鶯歌區重慶街69號",
        "area": "新北"
      }
    },
    {
      "type": "Feature",
      "geometry": {
        "type": "Polygon",
        "coordinates": [
          [
            [
              121.47189899009214,
              25.083201915623505
            ],
            [
              121.47259150709806,
              25.08192460237315
            ],
            [
              121.47342050555682,
              25.08199327546788
            ],
            [
              121.47523014853704,
              25.08242820417044
            ],
            [
              121.47476004575043,
              25.083911528335946
            ],
            [
              121.4732587497611,
              25.08370551216585
            ],
            [
              121.47189899009214,
              25.083201915623505
            ]
          ]
        ]
      },
      "properties": {
        "district": "蘆洲區",
        "business_district": "蘆洲廟口商圈",
        "chairman_of_the_board": "林榮宗",
        "tel": "02228391900",
        "addr": "新北市蘆洲區得勝街131號",
        "area": "新北"
      }
    },
    {
      "type": "Feature",
      "geometry": {
        "type": "Polygon",
        "coordinates": [
          [
            [
              121.65936576065064,
              24.991679718595023
            ],
            [
              121.6593481907804,
              24.991685026896064
            ],
            [
              121.65940090023673,
              24.98985897633507
            ],
            [
              121.6613628633666,
              24.990161550541117
            ],
            [
              121.66200709011753,
              24.991430230717697
            ],
            [
              121.65936576065064,
              24.991679718595023
            ]
          ]
        ]
      },
      "properties": {
        "district": "石碇區",
        "business_district": "石碇商圈",
        "chairman_of_the_board": "林淑芳",
        "tel": "09312773800",
        "addr": "新北市石碇區石碇東街51號",
        "area": "新北"
      }
    },
    {
      "type": "Feature",
      "geometry": {
        "type": "Polygon",
        "coordinates": [
          [
            [
              121.51566016471929,
              25.01220486878516
            ],
            [
              121.51555945966362,
              25.012053509467663
            ],
            [
              121.51552998501194,
              25.011739660877836
            ],
            [
              121.51566262094082,
              25.011701820922852
            ],
            [
              121.51597701721334,
              25.011705159742746
            ],
            [
              121.51602859785197,
              25.01192663460226
            ],
            [
              121.5159843858757,
              25.0121714807169
            ],
            [
              121.51566016471929,
              25.01220486878516
            ]
          ]
        ]
      },
      "properties": {
        "district": "永和區",
        "business_district": "韓國街商圈",
        "chairman_of_the_board": "彭守喜",
        "tel": "09332234730",
        "addr": "新北市永和區中興街9號",
        "area": "新北"
      }
    },
    {
      "type": "Feature",
      "geometry": {
        "type": "Polygon",
        "coordinates": [
          [
            [
              121.73877170809851,
              25.025406449944725
            ],
            [
              121.73764678890711,
              25.02497255280491
            ],
            [
              121.73757078085265,
              25.02421495094744
            ],
            [
              121.74124957064288,
              25.024345809784137
            ],
            [
              121.74197924795612,
              25.02524804323029
            ],
            [
              121.74121916742234,
              25.02590233051167
            ],
            [
              121.73877170809851,
              25.025406449944725
            ]
          ]
        ]
      },
      "properties": {
        "district": "平溪區",
        "business_district": "平溪魅力商圈",
        "chairman_of_the_board": "王聖凱",
        "tel": "09870918310",
        "addr": "新北市平溪區靜安路2段390號",
        "area": "新北"
      }
    },
    {
      "type": "Feature",
      "geometry": {
        "type": "Polygon",
        "coordinates": [
          [
            [
              121.43555761291714,
              25.172615991717763
            ],
            [
              121.43919281681133,
              25.169617706141963
            ],
            [
              121.44327570591344,
              25.16830492005984
            ],
            [
              121.44469039117308,
              25.16916390514389
            ],
            [
              121.44400990965676,
              25.1707359942491
            ],
            [
              121.43912118717748,
              25.173718045720477
            ],
            [
              121.43555761291714,
              25.17263219846609
            ],
            [
              121.43555761291714,
              25.172615991717763
            ]
          ]
        ]
      },
      "properties": {
        "district": "淡水區",
        "business_district": "淡水老街商圈",
        "chairman_of_the_board": "盧育佑",
        "tel": "09263777470",
        "addr": "新北市淡水區中正路 11 巷 8 號",
        "area": "新北"
      }
    },
    {
      "type": "Feature",
      "geometry": {
        "type": "Polygon",
        "coordinates": [
          [
            [
              121.45775712727323,
              25.009645205992612
            ],
            [
              121.45777122873642,
              25.0096515956229
            ],
            [
              121.45954801303844,
              25.007185173410264
            ],
            [
              121.46240355923908,
              25.008418390707206
            ],
            [
              121.46069023152,
              25.010367232176208
            ],
            [
              121.45775712727323,
              25.009645205992612
            ]
          ]
        ]
      },
      "properties": {
        "district": "板橋區",
        "business_district": "板橋府中商圈",
        "chairman_of_the_board": "劉朝翔",
        "tel": "09559893300",
        "addr": "新北市板橋區重慶路10號8樓",
        "area": "新北"
      }
    },
    {
      "type": "Feature",
      "geometry": {
        "type": "Polygon",
        "coordinates": [
          [
            [
              121.449647921044,
              25.033470901705215
            ],
            [
              121.44963835250303,
              25.033470901705215
            ],
            [
              121.44982493904593,
              25.03235684288785
            ],
            [
              121.45151378646085,
              25.033024412420502
            ],
            [
              121.45140374824337,
              25.03372232214015
            ],
            [
              121.45094445829608,
              25.03412979554348
            ],
            [
              121.449647921044,
              25.033470901705215
            ]
          ]
        ]
      },
      "properties": {
        "district": "新莊區",
        "business_district": "新莊廟街商圈",
        "chairman_of_the_board": "孫松慶",
        "tel": "09250956770",
        "addr": "新北市新莊區武前街24號",
        "area": "新北"
      }
    },
    {
      "type": "Feature",
      "geometry": {
        "type": "Polygon",
        "coordinates": [
          [
            [
              121.36844215156918,
              24.933111351957294
            ],
            [
              121.36937717709174,
              24.932497259670484
            ],
            [
              121.3696246838486,
              24.93284638865555
            ],
            [
              121.36854527938465,
              24.933432424371148
            ],
            [
              121.36843527638126,
              24.933111351957294
            ],
            [
              121.36844215156918,
              24.933111351957294
            ]
          ]
        ]
      },
      "properties": {
        "district": "三峽區",
        "business_district": "三峽民權老街商圈",
        "chairman_of_the_board": "林豐斌",
        "tel": "09131373230",
        "addr": "新北市三峽區民權街75號",
        "area": "新北"
      }
    },
    {
      "type": "Feature",
      "geometry": {
        "type": "Polygon",
        "coordinates": [
          [
            [
              121.84246105510488,
              25.10732267336641
            ],
            [
              121.84550063380459,
              25.107343886334405
            ],
            [
              121.8459457358872,
              25.108892423048005
            ],
            [
              121.84477065023395,
              25.109982016255458
            ],
            [
              121.84349391004906,
              25.109764587851487
            ],
            [
              121.84242800769238,
              25.107330423962352
            ],
            [
              121.84246105510488,
              25.10732267336641
            ]
          ]
        ]
      },
      "properties": {
        "district": "瑞芳區",
        "business_district": "九份老街商圈",
        "chairman_of_the_board": "蘇宗德",
        "tel": "",
        "addr": "新北市瑞芳區豎崎路15號",
        "area": "新北"
      }
    },
    {
      "type": "Feature",
      "geometry": {
        "type": "Polygon",
        "coordinates": [
          [
            [
              121.63524975500007,
              25.218602722447628
            ],
            [
              121.64781879832731,
              25.22158574639009
            ],
            [
              121.65186700968536,
              25.227285776806013
            ],
            [
              121.65114877863891,
              25.228969154378092
            ],
            [
              121.64187706875441,
              25.228053636132813
            ],
            [
              121.63518446126801,
              25.226222578965363
            ],
            [
              121.63511916753595,
              25.218632257696882
            ],
            [
              121.63524975500007,
              25.218602722447628
            ]
          ]
        ]
      },
      "properties": {
        "district": "金山區",
        "business_district": "金山商圈",
        "chairman_of_the_board": "羅國旺",
        "tel": "09721638730",
        "addr": "新北市金山區金包里街74號",
        "area": "新北"
      }
    },
    {
      "type": "Feature",
      "geometry": {
        "type": "Polygon",
        "coordinates": [
          [
            [
              121.61144206654649,
              25.00122663104493
            ],
            [
              121.6114314436943,
              25.001231441259577
            ],
            [
              121.6115694949512,
              25.000880154438946
            ],
            [
              121.61538713715339,
              25.001322869026964
            ],
            [
              121.61554111740082,
              25.001760772783854
            ],
            [
              121.61481369347007,
              25.002299729110945
            ],
            [
              121.61144206654649,
              25.00122663104493
            ]
          ]
        ]
      },
      "properties": {
        "district": "深坑區",
        "business_district": "深坑老街商圈",
        "chairman_of_the_board": "陳寶桂",
        "tel": "09351423160",
        "addr": "新北市深坑區昇高里文山路2段30巷28號",
        "area": "新北"
      }
    },
    {
      "type": "Feature",
      "geometry": {
        "type": "Polygon",
        "coordinates": [
          [
            [
              121.86022575459549,
              25.038221731820272
            ],
            [
              121.86019995141095,
              25.038221731820272
            ],
            [
              121.86458649288215,
              25.032938111426844
            ],
            [
              121.86884401842923,
              25.037987948119223
            ],
            [
              121.86585084895376,
              25.040840078827173
            ],
            [
              121.86022575459549,
              25.038221731820272
            ]
          ]
        ]
      },
      "properties": {
        "district": "雙溪區",
        "business_district": "雙溪商圈",
        "chairman_of_the_board": "莊豪雄",
        "tel": "09100905890",
        "addr": "新北市雙溪區梅竹蹊67號",
        "area": "新北"
      }
    },
    {
      "type": "Feature",
      "geometry": {
        "type": "Polygon",
        "coordinates": [
          [
            [
              121.68800266414718,
              25.183619438929597
            ],
            [
              121.68804831365617,
              25.183660749386732
            ],
            [
              121.6889613038008,
              25.177615503556225
            ],
            [
              121.69223285182272,
              25.180397180113843
            ],
            [
              121.68800266414718,
              25.183619438929597
            ]
          ]
        ]
      },
      "properties": {
        "district": "萬里區",
        "business_district": "萬里商圈",
        "chairman_of_the_board": "林簿",
        "tel": "",
        "addr": "新北市萬里區瑪鋉路221號",
        "area": "新北"
      }
    },
    {
      "type": "Feature",
      "geometry": {
        "type": "Polygon",
        "coordinates": [
          [
            [
              121.55145051421385,
              24.866207527194717
            ],
            [
              121.55140365477877,
              24.866239413589497
            ],
            [
              121.55136851020279,
              24.862466133099176
            ],
            [
              121.5531140241473,
              24.863635330916026
            ],
            [
              121.55145051421385,
              24.866207527194717
            ]
          ]
        ]
      },
      "properties": {
        "district": "烏來區",
        "business_district": "烏來商圈",
        "chairman_of_the_board": "洪楊寶滿",
        "tel": "09320669240",
        "addr": "新北市烏來區烏來街34號",
        "area": "新北"
      }
    },
    {
      "type": "Feature",
      "geometry": {
        "type": "Polygon",
        "coordinates": [
          [
            [
              121.71139489687238,
              24.93723015214991
            ],
            [
              121.7114825765666,
              24.937222708353815
            ],
            [
              121.71125387148402,
              24.935955361430686
            ],
            [
              121.7123592793863,
              24.93583438672445
            ],
            [
              121.71317880593443,
              24.936871308921624
            ],
            [
              121.71139489687238,
              24.93723015214991
            ]
          ]
        ]
      },
      "properties": {
        "district": "坪林區",
        "business_district": "坪林商圈",
        "chairman_of_the_board": "高明富",
        "tel": "09362077980",
        "addr": "新北市坪林區北宜路8段217號",
        "area": "新北"
      }
    },
    {
      "type": "Feature",
      "geometry": {
        "type": "Polygon",
        "coordinates": [
          [
            [
              121.4325878250445,
              25.159478307793762
            ],
            [
              121.43266134970088,
              25.159507134480776
            ],
            [
              121.43326490619728,
              25.157954942517094
            ],
            [
              121.43828498278287,
              25.15461636758313
            ],
            [
              121.43873525682585,
              25.155596270478142
            ],
            [
              121.43441766211856,
              25.159565021725655
            ],
            [
              121.4325878250445,
              25.159478307793762
            ]
          ]
        ]
      },
      "properties": {
        "district": "八里區",
        "business_district": "八里左岸商圈",
        "chairman_of_the_board": "邱毓奇",
        "tel": "09527752850",
        "addr": "新北市八里區忠孝路133號1樓",
        "area": "新北"
      }
    },
    {
      "type": "Feature",
      "geometry": {
        "type": "Polygon",
        "coordinates": [
          [
            [
              121.48901481874384,
              25.08383175193859
            ],
            [
              121.48874378038181,
              25.083399499397004
            ],
            [
              121.48940959200911,
              25.082609700686703
            ],
            [
              121.48995756087169,
              25.082454942234335
            ],
            [
              121.49019324640403,
              25.082700421067997
            ],
            [
              121.49020503068107,
              25.08340483585762
            ],
            [
              121.48972776747786,
              25.083837088380392
            ],
            [
              121.48903249515797,
              25.083863770584614
            ],
            [
              121.48901481874384,
              25.08383175193859
            ]
          ]
        ]
      },
      "properties": {
        "district": "三重區",
        "business_district": "三重碧華布街商圈",
        "chairman_of_the_board": "張家偉",
        "tel": "09351601880",
        "addr": "新北市三重區碧華街113號",
        "area": "新北"
      }
    },
    {
      "type": "Feature",
      "geometry": {
        "type": "Polygon",
        "coordinates": [
          [
            [
              121.36917674381209,
              24.932886709685064
            ],
            [
              121.36956018304664,
              24.9329288555612
            ],
            [
              121.37024572592031,
              24.933898206743194
            ],
            [
              121.36971704455175,
              24.934151079710475
            ],
            [
              121.3690198823083,
              24.93297100142358
            ],
            [
              121.36918255349764,
              24.93288144144931
            ],
            [
              121.36917674381209,
              24.932886709685064
            ]
          ]
        ]
      },
      "properties": {
        "district": "三峽區",
        "business_district": "三峽三角湧商圈",
        "chairman_of_the_board": "顏明玉",
        "tel": "09533488180",
        "addr": "新北市三峽區民生街170號",
        "area": "新北"
      }
    },
    {
      "type": "Feature",
      "geometry": {
        "type": "Polygon",
        "coordinates": [
          [
            [
              121.3705898805851,
              24.93332594603703
            ],
            [
              121.37061544568053,
              24.93331435483543
            ],
            [
              121.37176587500284,
              24.933905504740537
            ],
            [
              121.37182978774212,
              24.934392331946015
            ],
            [
              121.37065379332444,
              24.93498347668043
            ],
            [
              121.36908793119323,
              24.934374945293314
            ],
            [
              121.36945862508554,
              24.933024574434057
            ],
            [
              121.3705898805851,
              24.93332594603703
            ]
          ]
        ]
      },
      "properties": {
        "district": "三峽區",
        "business_district": "三峽秀川商圈",
        "chairman_of_the_board": "鄭志宏",
        "tel": "09886333690",
        "addr": "新北市三峽區忠孝街24號",
        "area": "新北"
      }
    },
    {
      "type": "Feature",
      "geometry": {
        "type": "Polygon",
        "coordinates": [
          [
            [
              121.50649960838803,
              24.98412967976455
            ],
            [
              121.50649055324726,
              24.98412763933419
            ],
            [
              121.50854602824893,
              24.983946501213865
            ],
            [
              121.50775393039163,
              24.98578070598826
            ],
            [
              121.50649960838803,
              24.98412967976455
            ]
          ]
        ]
      },
      "properties": {
        "district": "中和區",
        "business_district": "中和華新街商圈",
        "chairman_of_the_board": "張標材",
        "tel": "09285150360",
        "addr": "新北市中和區華新街92號",
        "area": "新北"
      }
    },
    {
      "type": "Feature",
      "geometry": {
        "type": "Polygon",
        "coordinates": [
          [
            [
              121.39239061373235,
              25.07850172407275
            ],
            [
              121.39237958093264,
              25.078491731358497
            ],
            [
              121.39221408894446,
              25.07640323612557
            ],
            [
              121.39614176547701,
              25.075863619125826
            ],
            [
              121.39668237264033,
              25.078092022108493
            ],
            [
              121.39239061373235,
              25.07850172407275
            ]
          ]
        ]
      },
      "properties": {
        "district": "林口區",
        "business_district": "林口建城商圈",
        "chairman_of_the_board": "謝牡丹",
        "tel": "09362691950",
        "addr": "新北市林口區信義路206號13樓",
        "area": "新北"
      }
    },
    {
      "type": "Feature",
      "geometry": {
        "type": "Polygon",
        "coordinates": [
          [
            [
              121.68568287664516,
              25.2073195645156
            ],
            [
              121.68571018870222,
              25.2073195645156
            ],
            [
              121.68494545108604,
              25.20282204250735
            ],
            [
              121.69158228110979,
              25.199065742949998
            ],
            [
              121.6944227351114,
              25.202747906137333
            ],
            [
              121.69237433078314,
              25.205490921767222
            ],
            [
              121.68568287664516,
              25.2073195645156
            ]
          ]
        ]
      },
      "properties": {
        "district": "萬里區",
        "business_district": "野柳商圈",
        "chairman_of_the_board": "陳丕展",
        "tel": "09155118380",
        "addr": "新北市萬里區瑪鋉路221號",
        "area": "新北"
      }
    },
    {
      "type": "Feature",
      "geometry": {
        "type": "Polygon",
        "coordinates": [
          [
            [
              121.72172120841276,
              25.02297291122038
            ],
            [
              121.72172120841276,
              25.02293265208992
            ],
            [
              121.72344506677331,
              25.02126591248056
            ],
            [
              121.7252222403406,
              25.021926169525457
            ],
            [
              121.72746147903791,
              25.022393178461243
            ],
            [
              121.72725710407644,
              25.023568744813545
            ],
            [
              121.72398710471242,
              25.02500195431398
            ],
            [
              121.72172120841276,
              25.02297291122038
            ]
          ]
        ]
      },
      "properties": {
        "district": "平溪區",
        "business_district": "菁桐商圈",
        "chairman_of_the_board": "李溫泉",
        "tel": "09193912510",
        "addr": "新北市平溪區菁桐街165號",
        "area": "新北"
      }
    },
    {
      "type": "Feature",
      "geometry": {
        "type": "Polygon",
        "coordinates": [
          [
            [
              121.46939254320091,
              25.08079733375071
            ],
            [
              121.46956077469764,
              25.080898913117338
            ],
            [
              121.46988194389667,
              25.07954143661979
            ],
            [
              121.47116662068788,
              25.079656868880093
            ],
            [
              121.47142661480177,
              25.08125905741666
            ],
            [
              121.47070780753586,
              25.081489918576054
            ],
            [
              121.46939254320091,
              25.08079733375071
            ]
          ]
        ]
      },
      "properties": {
        "district": "蘆洲區",
        "business_district": "猴硐商圈",
        "chairman_of_the_board": "李盈序",
        "tel": "09288817380",
        "addr": "新北市蘆洲區中山二路182號3樓",
        "area": "新北"
      }
    },
    {
      "type": "Feature",
      "geometry": {
        "type": "Polygon",
        "coordinates": [
          [
            [
              121.44646621452841,
              25.058979724342777
            ],
            [
              121.44880754950071,
              25.058778084524022
            ],
            [
              121.45059652727656,
              25.059069341933096
            ],
            [
              121.44990401975019,
              25.060323981319456
            ],
            [
              121.4465404117642,
              25.059039469409953
            ],
            [
              121.44646621452841,
              25.058979724342777
            ]
          ]
        ]
      },
      "properties": {
        "district": "新莊區",
        "business_district": "新莊副都心商圈",
        "chairman_of_the_board": "吳毓耕",
        "tel": "09091238880",
        "addr": "新北市新莊區新北大道4段135號22樓",
        "area": "新北"
      }
    },
    {
      "type": "Feature",
      "geometry": {
        "type": "Polygon",
        "coordinates": [
          [
            [
              121.45171299194055,
              24.996505276690513
            ],
            [
              121.45043299024468,
              24.995998789254713
            ],
            [
              121.45024567292398,
              24.995642266120214
            ],
            [
              121.45124157668187,
              24.995045229031234
            ],
            [
              121.45178167495783,
              24.995789402777135
            ],
            [
              121.4516162113232,
              24.996462833689876
            ],
            [
              121.45171299194055,
              24.996505276690513
            ]
          ]
        ]
      },
      "properties": {
        "district": "板橋區",
        "business_district": "亞東商圈",
        "chairman_of_the_board": "洪啟峰",
        "tel": "09523829330",
        "addr": "新北市板橋區四川路二段16巷10號5樓",
        "area": "新北"
      }
    },
    {
      "type": "Feature",
      "geometry": {
        "type": "Polygon",
        "coordinates": [
          [
            [
              121.80882126407818,
              25.109611624687005
            ],
            [
              121.80307138555747,
              25.110004567553347
            ],
            [
              121.80018869713439,
              25.108446822341747
            ],
            [
              121.80694596677051,
              25.105920706838646
            ],
            [
              121.80897624732683,
              25.107001329302477
            ],
            [
              121.80886775905259,
              25.109597590989353
            ],
            [
              121.80882126407818,
              25.109611624687005
            ]
          ]
        ]
      },
      "properties": {
        "district": "瑞芳區",
        "business_district": "瑞芳老街商圈",
        "chairman_of_the_board": "柯瑞和",
        "tel": "09101405450",
        "addr": "新北市瑞芳區瑞芳街50號",
        "area": "新北"
      }
    },
    {
      "type": "Feature",
      "geometry": {
        "type": "Polygon",
        "coordinates": [
          [
            [
              121.43601317701825,
              25.158117735146988
            ],
            [
              121.43270048825366,
              25.160516080858088
            ],
            [
              121.42872953499005,
              25.15954777919376
            ],
            [
              121.43210212543289,
              25.156560766309312
            ],
            [
              121.43549284808307,
              25.154919519307654
            ],
            [
              121.4398989743056,
              25.15482104378478
            ],
            [
              121.43601317701825,
              25.158117735146988
            ]
          ]
        ]
      },
      "properties": {
        "district": "八里區",
        "business_district": "八里渡船頭商圈",
        "chairman_of_the_board": "周曼芝",
        "tel": "09397181270",
        "addr": "新北市八里區渡船頭街20號",
        "area": "新北"
      }
    }
  ]
}