{
  "type": "FeatureCollection",
  "features": [
    {
      "type": "Feature",
      "geometry": {
        "type": "Polygon",
        "coordinates": [
          [
            [
              121.5038499,
              25.1372184
            ],
            [
              121.5050086,
              25.1384374
            ],
            [
              121.5049442,
              25.1385394
            ],
            [
              121.5064945,
              25.1398166
            ],
            [
              121.5065589,
              25.1400254
            ],
            [
              121.5062665,
              25.140681
            ],
            [
              121.5067815,
              25.1413074
            ],
            [
              121.5076076,
              25.1415114
            ],
            [
              121.5081655,
              25.141118
            ],
            [
              121.5088844,
              25.1410792
            ],
            [
              121.5093028,
              25.1410938
            ],
            [
              121.5103113,
              25.1410452
            ],
            [
              121.5107887,
              25.1412006
            ],
            [
              121.5115558,
              25.1412395
            ],
            [
              121.5123927,
              25.1415017
            ],
            [
              121.5127789,
              25.141492
            ],
            [
              121.5139698,
              25.1418562
            ],
            [
              121.5142702,
              25.1420504
            ],
            [
              121.5147101,
              25.1421281
            ],
            [
              121.5156435,
              25.1416959
            ],
            [
              121.5157455,
              25.1415794
            ],
            [
              121.5155899,
              25.1412152
            ],
            [
              121.5148764,
              25.1406373
            ],
            [
              121.5141576,
              25.1397923
            ],
            [
              121.5139001,
              25.1395155
            ],
            [
              121.5139752,
              25.138957
            ],
            [
              121.5139537,
              25.1386268
            ],
            [
              121.5153163,
              25.1383208
            ],
            [
              121.5166145,
              25.1380974
            ],
            [
              121.5170115,
              25.1379226
            ],
            [
              121.5167754,
              25.1375535
            ],
            [
              121.5161746,
              25.1369805
            ],
            [
              121.5161961,
              25.1366308
            ],
            [
              121.5163677,
              25.1359801
            ],
            [
              121.5161532,
              25.1356401
            ],
            [
              121.5147477,
              25.1359121
            ],
            [
              121.513546,
              25.1358344
            ],
            [
              121.5124624,
              25.1356401
            ],
            [
              121.5116792,
              25.1359024
            ],
            [
              121.511014,
              25.1360481
            ],
            [
              121.5101343,
              25.1358926
            ],
            [
              121.5091579,
              25.1360189
            ],
            [
              121.5083104,
              25.1356595
            ],
            [
              121.5075379,
              25.1354167
            ],
            [
              121.5066581,
              25.1352516
            ],
            [
              121.505199,
              25.135305
            ],
            [
              121.5041154,
              25.1356644
            ],
            [
              121.5038364,
              25.1362083
            ],
            [
              121.5038499,
              25.1372184
            ]
          ]
        ]
      },
      "properties": {
        "district": "北投區",
        "business_district": "新北投溫泉(商圈)",
        "chairman_of_the_board": "林致宇",
        "tel": "0228955418",
        "addr": "臺北市光明路224號1樓",
        "area": "臺北"
      }
    },
    {
      "type": "Feature",
      "geometry": {
        "type": "Polygon",
        "coordinates": [
          [
            [
              121.525801,
              25.144648
            ],
            [
              121.528661,
              25.144568
            ],
            [
              121.529238,
              25.126109
            ],
            [
              121.523362,
              25.118723
            ],
            [
              121.521546,
              25.120184
            ],
            [
              121.527356,
              25.128499
            ],
            [
              121.52568,
              25.144097
            ],
            [
              121.525801,
              25.144648
            ]
          ]
        ]
      },
      "properties": {
        "district": "北投區",
        "business_district": "行義路溫泉美食(商圈)",
        "chairman_of_the_board": "游騰在",
        "tel": "0225992875",
        "addr": "臺北市行義路269號",
        "area": "臺北"
      }
    },
    {
      "type": "Feature",
      "geometry": {
        "type": "Polygon",
        "coordinates": [
          [
            [
              121.516956,
              25.112927
            ],
            [
              121.519406,
              25.118749
            ],
            [
              121.512663,
              25.119049
            ],
            [
              121.512172,
              25.118928
            ],
            [
              121.516363,
              25.112967
            ],
            [
              121.516956,
              25.112927
            ]
          ]
        ]
      },
      "properties": {
        "district": "北投區",
        "business_district": "石牌捷運(商圈)",
        "chairman_of_the_board": "蕭淑霞",
        "tel": "0228264119",
        "addr": "臺北市北投區石牌路二段68巷18號1樓",
        "area": "臺北"
      }
    },
    {
      "type": "Feature",
      "geometry": {
        "type": "Polygon",
        "coordinates": [
          [
            [
              121.5239846,
              25.0973296
            ],
            [
              121.5244459,
              25.0974461
            ],
            [
              121.5252988,
              25.0974364
            ],
            [
              121.5259426,
              25.0974267
            ],
            [
              121.5265756,
              25.0976065
            ],
            [
              121.5269779,
              25.0977328
            ],
            [
              121.5277021,
              25.0979076
            ],
            [
              121.52826,
              25.0959839
            ],
            [
              121.5284692,
              25.0950609
            ],
            [
              121.5284048,
              25.0938366
            ],
            [
              121.5283458,
              25.0934577
            ],
            [
              121.5270476,
              25.0927387
            ],
            [
              121.5264897,
              25.0924423
            ],
            [
              121.526082,
              25.0922092
            ],
            [
              121.5255402,
              25.0929087
            ],
            [
              121.5250896,
              25.0935597
            ],
            [
              121.5248911,
              25.0939435
            ],
            [
              121.5247195,
              25.0946334
            ],
            [
              121.5244244,
              25.0957021
            ],
            [
              121.5239846,
              25.0973296
            ]
          ]
        ]
      },
      "properties": {
        "district": "士林區",
        "business_district": "士林捷運商圈",
        "chairman_of_the_board": "何逸松",
        "tel": "0228366957",
        "addr": "臺北市士林區中山北路五段699巷20號1樓",
        "area": "臺北"
      }
    },
    {
      "type": "Feature",
      "geometry": {
        "type": "Polygon",
        "coordinates": [
          [
            [
              121.522691,
              25.089844
            ],
            [
              121.524236,
              25.091214
            ],
            [
              121.527433,
              25.091748
            ],
            [
              121.527368,
              25.088202
            ],
            [
              121.525587,
              25.085588
            ],
            [
              121.522937,
              25.089455
            ],
            [
              121.522691,
              25.089844
            ]
          ]
        ]
      },
      "properties": {
        "district": "士林區",
        "business_district": "士林觀光夜市(商圈)",
        "chairman_of_the_board": "吳忠達",
        "tel": "0228820986",
        "addr": "臺北市士林區大西路6號1樓",
        "area": "臺北"
      }
    },
    {
      "type": "Feature",
      "geometry": {
        "type": "Polygon",
        "coordinates": [
          [
            [
              121.5240685,
              25.0998219
            ],
            [
              121.5233389,
              25.0996665
            ],
            [
              121.5224591,
              25.1005409
            ],
            [
              121.5210644,
              25.1016485
            ],
            [
              121.5191547,
              25.1033778
            ],
            [
              121.5190045,
              25.1035333
            ],
            [
              121.5199701,
              25.1040191
            ],
            [
              121.5214506,
              25.1065839
            ],
            [
              121.5214506,
              25.1087212
            ],
            [
              121.522781,
              25.1094207
            ],
            [
              121.5228668,
              25.1106253
            ],
            [
              121.5252559,
              25.1112
            ],
            [
              121.5259425,
              25.1122686
            ],
            [
              121.5260927,
              25.1130652
            ],
            [
              121.5252559,
              25.1149693
            ],
            [
              121.5253846,
              25.1158436
            ],
            [
              121.5239255,
              25.1173979
            ],
            [
              121.5240542,
              25.1181944
            ],
            [
              121.5248052,
              25.1200013
            ],
            [
              121.5251271,
              25.1201081
            ],
            [
              121.5256099,
              25.1202344
            ],
            [
              121.5259747,
              25.1206133
            ],
            [
              121.525921,
              25.1209435
            ],
            [
              121.5256314,
              25.1212932
            ],
            [
              121.5260498,
              25.12276
            ],
            [
              121.5266935,
              25.1235177
            ],
            [
              121.5276806,
              25.1236731
            ],
            [
              121.5287213,
              25.1236829
            ],
            [
              121.5297909,
              25.1242432
            ],
            [
              121.5299787,
              25.1249328
            ],
            [
              121.5299465,
              25.1256614
            ],
            [
              121.5310086,
              25.1257585
            ],
            [
              121.5318777,
              25.1253942
            ],
            [
              121.5326555,
              25.1249037
            ],
            [
              121.5331117,
              25.1244988
            ],
            [
              121.5332619,
              25.1242511
            ],
            [
              121.5333316,
              25.1233865
            ],
            [
              121.533176,
              25.122896
            ],
            [
              121.5331653,
              25.1226046
            ],
            [
              121.5333477,
              25.1220897
            ],
            [
              121.5328434,
              25.1208998
            ],
            [
              121.5331653,
              25.1201907
            ],
            [
              121.5335623,
              25.1197438
            ],
            [
              121.534206,
              25.119229
            ],
            [
              121.5346673,
              25.1182867
            ],
            [
              121.5382615,
              25.118345
            ],
            [
              121.5391842,
              25.1183061
            ],
            [
              121.539388,
              25.1140609
            ],
            [
              121.5400532,
              25.1108162
            ],
            [
              121.534324,
              25.1097282
            ],
            [
              121.5340441,
              25.1094695
            ],
            [
              121.5337008,
              25.1088672
            ],
            [
              121.5332073,
              25.1071379
            ],
            [
              121.5330356,
              25.106283
            ],
            [
              121.5332502,
              25.1048257
            ],
            [
              121.5332502,
              25.1041068
            ],
            [
              121.5337223,
              25.1030964
            ],
            [
              121.533615,
              25.1014642
            ],
            [
              121.5337008,
              25.1010561
            ],
            [
              121.5323061,
              25.1009395
            ],
            [
              121.5298599,
              25.1000651
            ],
            [
              121.5275425,
              25.1006481
            ],
            [
              121.5258688,
              25.1005898
            ],
            [
              121.5240685,
              25.0998219
            ]
          ]
        ]
      },
      "properties": {
        "district": "士林區",
        "business_district": "天母(商圈)",
        "chairman_of_the_board": "黃唐笛",
        "tel": "0228761189",
        "addr": "臺北市士林區天母北路10號",
        "area": "臺北"
      }
    },
    {
      "type": "Feature",
      "geometry": {
        "type": "Polygon",
        "coordinates": [
          [
            [
              121.499882,
              25.120603
            ],
            [
              121.510322,
              25.11094
            ],
            [
              121.512337,
              25.098992
            ],
            [
              121.515597,
              25.091321
            ],
            [
              121.521173,
              25.088796
            ],
            [
              121.522952,
              25.085014
            ],
            [
              121.521076,
              25.078958
            ],
            [
              121.521784,
              25.078548
            ],
            [
              121.52387,
              25.083835
            ],
            [
              121.523457,
              25.086181
            ],
            [
              121.520732,
              25.08962
            ],
            [
              121.516398,
              25.091574
            ],
            [
              121.513834,
              25.097549
            ],
            [
              121.513008,
              25.099667
            ],
            [
              121.511731,
              25.110723
            ],
            [
              121.500112,
              25.121253
            ],
            [
              121.499882,
              25.120603
            ]
          ]
        ]
      },
      "properties": {
        "district": "士林區",
        "business_district": "承德路中古汽車(商圈)",
        "chairman_of_the_board": "李寶星",
        "tel": "0228835356",
        "addr": "臺北市承德路4段257號1樓",
        "area": "臺北"
      }
    },
    {
      "type": "Feature",
      "geometry": {
        "type": "Polygon",
        "coordinates": [
          [
            [
              121.5116978,
              25.0554659
            ],
            [
              121.5117997,
              25.0539133
            ],
            [
              121.5139642,
              25.0540566
            ],
            [
              121.5142459,
              25.0540955
            ],
            [
              121.5142915,
              25.0541587
            ],
            [
              121.5138623,
              25.0559373
            ],
            [
              121.5125453,
              25.0556457
            ],
            [
              121.5125668,
              25.0555923
            ],
            [
              121.5116978,
              25.0554659
            ]
          ]
        ]
      },
      "properties": {
        "district": "大同區",
        "business_district": "朝陽服飾材料(商圈)",
        "chairman_of_the_board": "呂國維",
        "tel": "0225523101",
        "addr": "臺北市大同區重慶北路二段46巷6號1樓\t",
        "area": "臺北"
      }
    },
    {
      "type": "Feature",
      "geometry": {
        "type": "Polygon",
        "coordinates": [
          [
            [
              121.507585,
              25.0537075
            ],
            [
              121.5087222,
              25.0533867
            ],
            [
              121.5103315,
              25.0532604
            ],
            [
              121.5102672,
              25.0537852
            ],
            [
              121.5117799,
              25.0539018
            ],
            [
              121.511383,
              25.0605205
            ],
            [
              121.5112757,
              25.0627656
            ],
            [
              121.5088402,
              25.0632029
            ],
            [
              121.5085935,
              25.0619978
            ],
            [
              121.5084647,
              25.0607441
            ],
            [
              121.5084862,
              25.0594223
            ],
            [
              121.508454,
              25.057634
            ],
            [
              121.5074991,
              25.0537075
            ],
            [
              121.507585,
              25.0537075
            ]
          ]
        ]
      },
      "properties": {
        "district": "大同區",
        "business_district": "迪化街(商圈)",
        "chairman_of_the_board": "鄭玟和",
        "tel": "0225501390",
        "addr": "臺北市大同區歸綏街297號",
        "area": "臺北"
      }
    },
    {
      "type": "Feature",
      "geometry": {
        "type": "Polygon",
        "coordinates": [
          [
            [
              121.513882,
              25.0516714
            ],
            [
              121.5134314,
              25.0495234
            ],
            [
              121.5145901,
              25.0492707
            ],
            [
              121.5164569,
              25.0489111
            ],
            [
              121.5169826,
              25.0509425
            ],
            [
              121.513882,
              25.0516714
            ]
          ]
        ]
      },
      "properties": {
        "district": "大同區",
        "business_district": "後站(商圈)",
        "chairman_of_the_board": "許樹勳",
        "tel": "0225550858",
        "addr": "臺北市大同區重慶北路一段27巷15號1樓",
        "area": "臺北"
      }
    },
    {
      "type": "Feature",
      "geometry": {
        "type": "Polygon",
        "coordinates": [
          [
            [
              121.5137291,
              25.050711
            ],
            [
              121.5136916,
              25.0505458
            ],
            [
              121.5166661,
              25.0498751
            ],
            [
              121.5167117,
              25.0500622
            ],
            [
              121.5137291,
              25.050711
            ]
          ]
        ]
      },
      "properties": {
        "district": "大同區",
        "business_district": "華陰街(商圈)",
        "chairman_of_the_board": "李永進",
        "tel": "0225592500#101",
        "addr": "臺北市大同區重慶北路一段30號6樓",
        "area": "臺北"
      }
    },
    {
      "type": "Feature",
      "geometry": {
        "type": "Polygon",
        "coordinates": [
          [
            [
              121.5139037,
              25.072995
            ],
            [
              121.513893,
              25.0719503
            ],
            [
              121.5162694,
              25.0718677
            ],
            [
              121.516602,
              25.0716636
            ],
            [
              121.5183454,
              25.0706432
            ],
            [
              121.5184259,
              25.071479
            ],
            [
              121.5185224,
              25.0718823
            ],
            [
              121.5187531,
              25.0724362
            ],
            [
              121.5190857,
              25.073063
            ],
            [
              121.5193271,
              25.0734517
            ],
            [
              121.5185654,
              25.0737627
            ],
            [
              121.517294,
              25.0738064
            ],
            [
              121.5173101,
              25.0734371
            ],
            [
              121.5163767,
              25.0734177
            ],
            [
              121.5160977,
              25.0731553
            ],
            [
              121.5157812,
              25.0731067
            ],
            [
              121.5149497,
              25.0730678
            ],
            [
              121.5139037,
              25.072995
            ]
          ]
        ]
      },
      "properties": {
        "district": "大同區",
        "business_district": "大龍峒(商圈)",
        "chairman_of_the_board": "張賦脈",
        "tel": "0225910582",
        "addr": "臺北市大同區哈密街96號",
        "area": "臺北"
      }
    },
    {
      "type": "Feature",
      "geometry": {
        "type": "Polygon",
        "coordinates": [
          [
            [
              121.508887,
              25.063538
            ],
            [
              121.511207,
              25.063115
            ],
            [
              121.510853,
              25.068635
            ],
            [
              121.509914,
              25.068691
            ],
            [
              121.509182,
              25.068713
            ],
            [
              121.508994,
              25.067146
            ],
            [
              121.508887,
              25.063538
            ]
          ]
        ]
      },
      "properties": {
        "district": "大同區",
        "business_district": "臺北大橋頭延三(商圈)",
        "chairman_of_the_board": "施懿珊",
        "tel": "0225853129",
        "addr": "臺北市延平北路3段124號",
        "area": "臺北"
      }
    },
    {
      "type": "Feature",
      "geometry": {
        "type": "Polygon",
        "coordinates": [
          [
            [
              121.513918,
              25.057052
            ],
            [
              121.518103,
              25.057367
            ],
            [
              121.518109,
              25.054807
            ],
            [
              121.517644,
              25.053371
            ],
            [
              121.51507,
              25.053958
            ],
            [
              121.514763,
              25.054235
            ],
            [
              121.513918,
              25.057052
            ]
          ]
        ]
      },
      "properties": {
        "district": "大同區",
        "business_district": "寧夏夜市(商圈)",
        "chairman_of_the_board": "林定國",
        "tel": "0225580957",
        "addr": "臺北市大同區寧夏路58號2樓",
        "area": "臺北"
      }
    },
    {
      "type": "Feature",
      "geometry": {
        "type": "Polygon",
        "coordinates": [
          [
            [
              121.5185561,
              25.071927
            ],
            [
              121.5184649,
              25.0685257
            ],
            [
              121.5228422,
              25.0683507
            ],
            [
              121.5236952,
              25.0717229
            ],
            [
              121.5205516,
              25.071961
            ],
            [
              121.5204765,
              25.0718881
            ],
            [
              121.5200206,
              25.0718978
            ],
            [
              121.5185561,
              25.071927
            ]
          ]
        ]
      },
      "properties": {
        "district": "大同區",
        "business_district": "圓山(商圈)",
        "chairman_of_the_board": "呂映慈",
        "tel": "0225992905",
        "addr": "臺北市大同區酒泉街10巷25號 ",
        "area": "臺北"
      }
    },
    {
      "type": "Feature",
      "geometry": {
        "type": "Polygon",
        "coordinates": [
          [
            [
              121.5168506,
              25.0349167
            ],
            [
              121.5171081,
              25.0345668
            ],
            [
              121.5205628,
              25.0330017
            ],
            [
              121.5208096,
              25.0334537
            ],
            [
              121.5170169,
              25.0350771
            ],
            [
              121.5168506,
              25.0349167
            ]
          ]
        ]
      },
      "properties": {
        "district": "中正區",
        "business_district": "愛國東路婚紗(商圈)",
        "chairman_of_the_board": "李俊龍",
        "tel": "0223512151",
        "addr": "台北市愛國東路68號",
        "area": "臺北"
      }
    },
    {
      "type": "Feature",
      "geometry": {
        "type": "Polygon",
        "coordinates": [
          [
            [
              121.511515,
              25.042879
            ],
            [
              121.513176,
              25.042857
            ],
            [
              121.513168,
              25.042727
            ],
            [
              121.512246,
              25.042748
            ],
            [
              121.511527,
              25.042756
            ],
            [
              121.511515,
              25.042879
            ]
          ]
        ]
      },
      "properties": {
        "district": "中正區",
        "business_district": "沅陵街(商圈)",
        "chairman_of_the_board": "廖鴻昌",
        "tel": "0223111606",
        "addr": "臺北市中正區沅陵街2號",
        "area": "臺北"
      }
    },
    {
      "type": "Feature",
      "geometry": {
        "type": "Polygon",
        "coordinates": [
          [
            [
              121.5099036,
              25.0469846
            ],
            [
              121.5095952,
              25.0463479
            ],
            [
              121.5096086,
              25.0461972
            ],
            [
              121.5094852,
              25.0456554
            ],
            [
              121.5093189,
              25.0450697
            ],
            [
              121.5114003,
              25.0450673
            ],
            [
              121.5113359,
              25.0459907
            ],
            [
              121.5107029,
              25.0459761
            ],
            [
              121.5110087,
              25.0470283
            ],
            [
              121.5100404,
              25.0469481
            ],
            [
              121.5099036,
              25.0469846
            ]
          ]
        ]
      },
      "properties": {
        "district": "中正區",
        "business_district": "中華路影音(商圈)",
        "chairman_of_the_board": "黃意婷",
        "tel": "0223812712",
        "addr": "台北市中正區中華路一段29之4號1樓",
        "area": "臺北"
      }
    },
    {
      "type": "Feature",
      "geometry": {
        "type": "Polygon",
        "coordinates": [
          [
            [
              121.511099,
              25.047691
            ],
            [
              121.511223,
              25.045064
            ],
            [
              121.514974,
              25.045053
            ],
            [
              121.515,
              25.046755
            ],
            [
              121.512984,
              25.047275
            ],
            [
              121.511099,
              25.047691
            ]
          ]
        ]
      },
      "properties": {
        "district": "中正區",
        "business_district": "北門相機(商圈)",
        "chairman_of_the_board": "楊純",
        "tel": "0223142312",
        "addr": "臺北市中正區博愛路60號6樓之A左",
        "area": "臺北"
      }
    },
    {
      "type": "Feature",
      "geometry": {
        "type": "Polygon",
        "coordinates": [
          [
            [
              121.5130386,
              25.0472302
            ],
            [
              121.5129635,
              25.0424868
            ],
            [
              121.5127382,
              25.0408246
            ],
            [
              121.5132532,
              25.0407663
            ],
            [
              121.5134463,
              25.0423993
            ],
            [
              121.5135214,
              25.0471135
            ],
            [
              121.5130386,
              25.0472302
            ]
          ]
        ]
      },
      "properties": {
        "district": "中正區",
        "business_district": "重慶南路書店(商圈)",
        "chairman_of_the_board": "沈榮裕",
        "tel": "0223312666",
        "addr": "臺北市中正區重慶南路一段105號2樓",
        "area": "臺北"
      }
    },
    {
      "type": "Feature",
      "geometry": {
        "type": "Polygon",
        "coordinates": [
          [
            [
              121.5189818,
              25.0290067
            ],
            [
              121.5187297,
              25.0288657
            ],
            [
              121.5195773,
              25.0278401
            ],
            [
              121.5208755,
              25.0267805
            ],
            [
              121.5211759,
              25.026902
            ],
            [
              121.5207253,
              25.0273832
            ],
            [
              121.5206126,
              25.0278887
            ],
            [
              121.5197919,
              25.0286567
            ],
            [
              121.5194217,
              25.028438
            ],
            [
              121.5189818,
              25.0290067
            ]
          ]
        ]
      },
      "properties": {
        "district": "中正區",
        "business_district": "南昌家具(商圈)",
        "chairman_of_the_board": "黃世耀",
        "tel": "0223581227",
        "addr": "臺北市南昌路二段67號",
        "area": "臺北"
      }
    },
    {
      "type": "Feature",
      "geometry": {
        "type": "Polygon",
        "coordinates": [
          [
            [
              121.5307729,
              25.0459747
            ],
            [
              121.5298341,
              25.0431413
            ],
            [
              121.5328919,
              25.0423199
            ],
            [
              121.5330099,
              25.0453721
            ],
            [
              121.5307729,
              25.0459747
            ]
          ]
        ]
      },
      "properties": {
        "district": "中正區",
        "business_district": "大光華(商圈)",
        "chairman_of_the_board": "蔡若芸",
        "tel": "0233222995",
        "addr": "臺北市中正區八德路一段43巷28號1樓",
        "area": "臺北"
      }
    },
    {
      "type": "Feature",
      "geometry": {
        "type": "Polygon",
        "coordinates": [
          [
            [
              121.5355886,
              25.0113814
            ],
            [
              121.5358676,
              25.0108661
            ],
            [
              121.5367688,
              25.0109828
            ],
            [
              121.5375735,
              25.0115953
            ],
            [
              121.5375949,
              25.0117703
            ],
            [
              121.536565,
              25.0132774
            ],
            [
              121.5358998,
              25.0140357
            ],
            [
              121.5347625,
              25.0149788
            ],
            [
              121.5333463,
              25.016301
            ],
            [
              121.5337862,
              25.0166802
            ],
            [
              121.5340973,
              25.0169135
            ],
            [
              121.5348698,
              25.0221149
            ],
            [
              121.5349127,
              25.0224065
            ],
            [
              121.5338935,
              25.0224065
            ],
            [
              121.5329494,
              25.0223385
            ],
            [
              121.5324558,
              25.0221537
            ],
            [
              121.531737,
              25.0218524
            ],
            [
              121.5308143,
              25.0211427
            ],
            [
              121.5286578,
              25.0191788
            ],
            [
              121.5275849,
              25.0182455
            ],
            [
              121.5273489,
              25.0179733
            ],
            [
              121.528454,
              25.0171469
            ],
            [
              121.5322091,
              25.0145316
            ],
            [
              121.5334,
              25.013744
            ],
            [
              121.5344621,
              25.0131218
            ],
            [
              121.5355886,
              25.0113814
            ]
          ]
        ]
      },
      "properties": {
        "district": "中正區",
        "business_district": "臺大公館(商圈)",
        "chairman_of_the_board": "林全義",
        "tel": "0223671464",
        "addr": "臺北市中正區羅斯福路4段52巷16弄5號",
        "area": "臺北"
      }
    },
    {
      "type": "Feature",
      "geometry": {
        "type": "Polygon",
        "coordinates": [
          [
            [
              121.61668286553635,
              25.002517433970937
            ],
            [
              121.61560715210373,
              25.00275638165104
            ],
            [
              121.61417286752783,
              25.00209210594899
            ],
            [
              121.61374047291343,
              25.001083738128457
            ],
            [
              121.61550169000373,
              25.000347767763657
            ],
            [
              121.61612391639966,
              25.001112412209167
            ],
            [
              121.61670395795738,
              25.002522212928127
            ],
            [
              121.6166090420653,
              25.002536549802002
            ],
            [
              121.61668286553635,
              25.002517433970937
            ]
          ]
        ]
      },
      "properties": {
        "district": "萬華區",
        "business_district": "萬華",
        "chairman_of_the_board": "洪文和",
        "tel": "0223065988#1",
        "addr": "臺北市萬華區三水街62號1樓",
        "area": "臺北"
      }
    },
    {
      "type": "Feature",
      "geometry": {
        "type": "Polygon",
        "coordinates": [
          [
            [
              121.4993502,
              25.0352465
            ],
            [
              121.4980627,
              25.0331808
            ],
            [
              121.4988996,
              25.0330884
            ],
            [
              121.4995701,
              25.0329863
            ],
            [
              121.5005304,
              25.0330204
            ],
            [
              121.5006591,
              25.0334286
            ],
            [
              121.5009005,
              25.0337543
            ],
            [
              121.5010614,
              25.0342355
            ],
            [
              121.5012277,
              25.0351492
            ],
            [
              121.4993502,
              25.0352465
            ]
          ]
        ]
      },
      "properties": {
        "district": "萬華區",
        "business_district": "艋舺(商圈)",
        "chairman_of_the_board": "林韋志",
        "tel": "0223065869",
        "addr": "臺北市萬華區西園路一段282巷25號3樓之5",
        "area": "臺北"
      }
    },
    {
      "type": "Feature",
      "geometry": {
        "type": "Polygon",
        "coordinates": [
          [
            [
              121.49850675179056,
              25.037597988276133
            ],
            [
              121.50008191027746,
              25.037583824138025
            ],
            [
              121.50050400459031,
              25.036554563052718
            ],
            [
              121.49962854972034,
              25.036153243317827
            ],
            [
              121.49875309484906,
              25.036091864889343
            ],
            [
              121.49850817592727,
              25.037607430942415
            ],
            [
              121.49850675179056,
              25.037597988276133
            ]
          ]
        ]
      },
      "properties": {
        "district": "萬華區",
        "business_district": "艋舺(夜市)",
        "chairman_of_the_board": "李昭成",
        "tel": "0223319570",
        "addr": "臺北市萬華區華西街21巷9號1樓",
        "area": "臺北"
      }
    },
    {
      "type": "Feature",
      "geometry": {
        "type": "Polygon",
        "coordinates": [
          [
            [
              121.50324,
              25.046252
            ],
            [
              121.502409,
              25.043575
            ],
            [
              121.508068,
              25.042097
            ],
            [
              121.509018,
              25.045178
            ],
            [
              121.509002,
              25.045368
            ],
            [
              121.503696,
              25.046602
            ],
            [
              121.50324,
              25.046252
            ]
          ]
        ]
      },
      "properties": {
        "district": "萬華區",
        "business_district": "西門町(商圈)",
        "chairman_of_the_board": "洪明通",
        "tel": "0223754205",
        "addr": "臺北市萬華區漢中街135號11樓之1",
        "area": "臺北"
      }
    },
    {
      "type": "Feature",
      "geometry": {
        "type": "Polygon",
        "coordinates": [
          [
            [
              121.522651,
              25.062916
            ],
            [
              121.52565,
              25.062862
            ],
            [
              121.52567,
              25.065035
            ],
            [
              121.522379,
              25.065183
            ],
            [
              121.522442,
              25.06422
            ],
            [
              121.522651,
              25.062916
            ]
          ]
        ]
      },
      "properties": {
        "district": "中山區",
        "business_district": "晴光(商圈)",
        "chairman_of_the_board": "李豐運",
        "tel": "0225925899",
        "addr": "臺北市中山區林森北路556號1樓",
        "area": "臺北"
      }
    },
    {
      "type": "Feature",
      "geometry": {
        "type": "Polygon",
        "coordinates": [
          [
            [
              121.534856,
              25.052112
            ],
            [
              121.53489,
              25.05477
            ],
            [
              121.533178,
              25.054819
            ],
            [
              121.533151,
              25.053624
            ],
            [
              121.533088,
              25.05211
            ],
            [
              121.534856,
              25.052112
            ]
          ]
        ]
      },
      "properties": {
        "district": "中山區",
        "business_district": "四平陽光(商圈)",
        "chairman_of_the_board": "陳永成",
        "tel": "0225018531",
        "addr": "臺北市四平街83號1樓",
        "area": "臺北"
      }
    },
    {
      "type": "Feature",
      "geometry": {
        "type": "Polygon",
        "coordinates": [
          [
            [
              121.5225265,
              25.0684431
            ],
            [
              121.5221188,
              25.066655
            ],
            [
              121.5220545,
              25.0659747
            ],
            [
              121.5219794,
              25.0646627
            ],
            [
              121.5220545,
              25.063963
            ],
            [
              121.5223441,
              25.0631077
            ],
            [
              121.5225694,
              25.0618249
            ],
            [
              121.5226875,
              25.0607266
            ],
            [
              121.522548,
              25.0578887
            ],
            [
              121.5232239,
              25.0578304
            ],
            [
              121.5232668,
              25.0586954
            ],
            [
              121.5233419,
              25.0606489
            ],
            [
              121.5232132,
              25.0616402
            ],
            [
              121.5230415,
              25.0627093
            ],
            [
              121.5227733,
              25.0637783
            ],
            [
              121.5226445,
              25.0643614
            ],
            [
              121.5225802,
              25.0652264
            ],
            [
              121.522784,
              25.0670146
            ],
            [
              121.5231381,
              25.068414
            ],
            [
              121.5225265,
              25.0684431
            ]
          ]
        ]
      },
      "properties": {
        "district": "中山區",
        "business_district": "中山北路",
        "chairman_of_the_board": "高志榮",
        "tel": "0225927523",
        "addr": "臺北市大同區寧夏路54號",
        "area": "臺北"
      }
    },
    {
      "type": "Feature",
      "geometry": {
        "type": "Polygon",
        "coordinates": [
          [
            [
              121.522513,
              25.052126
            ],
            [
              121.527547,
              25.052022
            ],
            [
              121.528459,
              25.049526
            ],
            [
              121.52946,
              25.048185
            ],
            [
              121.528153,
              25.048324
            ],
            [
              121.521741,
              25.049855
            ],
            [
              121.522583,
              25.051884
            ],
            [
              121.522513,
              25.052126
            ]
          ]
        ]
      },
      "properties": {
        "district": "中山區",
        "business_district": "條通(商圈)",
        "chairman_of_the_board": "莊錫弘",
        "tel": "0225626434",
        "addr": "台北市松山區八德路四段245巷52弄21號1樓",
        "area": "臺北"
      }
    },
    {
      "type": "Feature",
      "geometry": {
        "type": "Polygon",
        "coordinates": [
          [
            [
              121.51742859859428,
              25.0609707092365
            ],
            [
              121.51968239926964,
              25.06091237715509
            ],
            [
              121.51980045549595,
              25.05896795855817
            ],
            [
              121.51748226051399,
              25.05845268245821
            ],
            [
              121.51740713382583,
              25.060980431247387
            ],
            [
              121.51742859859428,
              25.0609707092365
            ]
          ]
        ]
      },
      "properties": {
        "district": "中山區",
        "business_district": "南西心中山",
        "chairman_of_the_board": "李品濤",
        "tel": "0225967618",
        "addr": "臺北市中山區中山北路二段20巷6-1號4樓",
        "area": "臺北"
      }
    },
    {
      "type": "Feature",
      "geometry": {
        "type": "Polygon",
        "coordinates": [
          [
            [
              121.533523,
              25.06804
            ],
            [
              121.541779,
              25.067797
            ],
            [
              121.544037,
              25.066252
            ],
            [
              121.544107,
              25.067273
            ],
            [
              121.54188,
              25.068424
            ],
            [
              121.533673,
              25.068565
            ],
            [
              121.533523,
              25.06804
            ]
          ]
        ]
      },
      "properties": {
        "district": "中山區",
        "business_district": "民族濱江汽車",
        "chairman_of_the_board": "許嘉濬",
        "tel": "0227953799",
        "addr": "臺北市內湖區金湖路1號3樓",
        "area": "臺北"
      }
    },
    {
      "type": "Feature",
      "geometry": {
        "type": "Polygon",
        "coordinates": [
          [
            [
              121.54619004480821,
              25.084267633905554
            ],
            [
              121.54860773215893,
              25.08389694223699
            ],
            [
              121.54783673737552,
              25.08139689933678
            ],
            [
              121.54512397794548,
              25.08218140105498
            ],
            [
              121.54619004480821,
              25.08430211679466
            ],
            [
              121.54619004480821,
              25.084267633905554
            ]
          ]
        ]
      },
      "properties": {
        "district": "中山區",
        "business_district": "大直(商圈)",
        "chairman_of_the_board": "曹邦全",
        "tel": "0225321000#315",
        "addr": "臺北市中山區明水路659號1樓",
        "area": "臺北"
      }
    },
    {
      "type": "Feature",
      "geometry": {
        "type": "Polygon",
        "coordinates": [
          [
            [
              121.5769477,
              25.0795108
            ],
            [
              121.5791202,
              25.0786216
            ],
            [
              121.5797667,
              25.0788379
            ],
            [
              121.5795548,
              25.0793359
            ],
            [
              121.5797157,
              25.0795885
            ],
            [
              121.5797076,
              25.0802614
            ],
            [
              121.5796996,
              25.0803611
            ],
            [
              121.5789539,
              25.080519
            ],
            [
              121.5779588,
              25.0807692
            ],
            [
              121.5769477,
              25.0795108
            ]
          ]
        ]
      },
      "properties": {
        "district": "內湖區",
        "business_district": "內湖737(商圈)",
        "chairman_of_the_board": "吳上煊",
        "tel": "0287975933",
        "addr": "臺北市內湖路一段737 巷38 弄2 號B1",
        "area": "臺北"
      }
    },
    {
      "type": "Feature",
      "geometry": {
        "type": "Polygon",
        "coordinates": [
          [
            [
              121.559447,
              25.0849854
            ],
            [
              121.5597045,
              25.084519
            ],
            [
              121.5604555,
              25.0842858
            ],
            [
              121.5621506,
              25.0804961
            ],
            [
              121.5633308,
              25.0791745
            ],
            [
              121.5641033,
              25.0784749
            ],
            [
              121.5676653,
              25.0773671
            ],
            [
              121.5692531,
              25.0768812
            ],
            [
              121.5707337,
              25.076337
            ],
            [
              121.5717637,
              25.0747433
            ],
            [
              121.5721928,
              25.0741991
            ],
            [
              121.5735447,
              25.0747239
            ],
            [
              121.5745961,
              25.0752875
            ],
            [
              121.57642,
              25.0781834
            ],
            [
              121.5779864,
              25.0804766
            ],
            [
              121.5785228,
              25.0814289
            ],
            [
              121.5784799,
              25.0838971
            ],
            [
              121.5781581,
              25.0842663
            ],
            [
              121.5776216,
              25.084072
            ],
            [
              121.5736949,
              25.0856461
            ],
            [
              121.5709912,
              25.0866372
            ],
            [
              121.568073,
              25.0866567
            ],
            [
              121.5655839,
              25.0866178
            ],
            [
              121.56376,
              25.0867538
            ],
            [
              121.5625798,
              25.0869093
            ],
            [
              121.5612709,
              25.0866178
            ],
            [
              121.5602409,
              25.0860154
            ],
            [
              121.559447,
              25.0849854
            ]
          ]
        ]
      },
      "properties": {
        "district": "內湖區",
        "business_district": "西湖(商圈)",
        "chairman_of_the_board": "劉宜敏",
        "tel": "0227989901",
        "addr": "臺北市內湖區內湖路一段285巷31號",
        "area": "臺北"
      }
    },
    {
      "type": "Feature",
      "geometry": {
        "type": "Polygon",
        "coordinates": [
          [
            [
              121.549344,
              25.058071
            ],
            [
              121.554965,
              25.058524
            ],
            [
              121.554465,
              25.060449
            ],
            [
              121.565259,
              25.061296
            ],
            [
              121.566306,
              25.061853
            ],
            [
              121.569045,
              25.058438
            ],
            [
              121.569197,
              25.057324
            ],
            [
              121.555647,
              25.05619
            ],
            [
              121.549237,
              25.055957
            ],
            [
              121.549344,
              25.058071
            ]
          ]
        ]
      },
      "properties": {
        "district": "松山區",
        "business_district": "民生社區",
        "chairman_of_the_board": "秦慧珠",
        "tel": "0287863256",
        "addr": "臺北市松山區民生東路五段178號2樓之1",
        "area": "臺北"
      }
    },
    {
      "type": "Feature",
      "geometry": {
        "type": "Polygon",
        "coordinates": [
          [
            [
              121.561457,
              25.029038
            ],
            [
              121.563122,
              25.026933
            ],
            [
              121.563978,
              25.027312
            ],
            [
              121.562015,
              25.029446
            ],
            [
              121.561824,
              25.029325
            ],
            [
              121.561457,
              25.029038
            ]
          ]
        ]
      },
      "properties": {
        "district": "信義區",
        "business_district": "吳興街(商圈)",
        "chairman_of_the_board": "游新章",
        "tel": "0227370194",
        "addr": "臺北市信義區吳興街147號",
        "area": "臺北"
      }
    },
    {
      "type": "Feature",
      "geometry": {
        "type": "Polygon",
        "coordinates": [
          [
            [
              121.577554,
              25.045492
            ],
            [
              121.580705,
              25.045329
            ],
            [
              121.580594,
              25.047459
            ],
            [
              121.580096,
              25.048343
            ],
            [
              121.577851,
              25.047985
            ],
            [
              121.577857,
              25.046912
            ],
            [
              121.577554,
              25.045492
            ]
          ]
        ]
      },
      "properties": {
        "district": "信義區",
        "business_district": "五分埔(商圈)",
        "chairman_of_the_board": "陳永昌",
        "tel": "0227641381",
        "addr": "臺北市永吉路517巷1弄10號",
        "area": "臺北"
      }
    },
    {
      "type": "Feature",
      "geometry": {
        "type": "Polygon",
        "coordinates": [
          [
            [
              121.5439423,
              25.0448208
            ],
            [
              121.5438136,
              25.0378805
            ],
            [
              121.5576323,
              25.0375888
            ],
            [
              121.5577396,
              25.0450929
            ],
            [
              121.5541991,
              25.0443153
            ],
            [
              121.5530833,
              25.0442959
            ],
            [
              121.5513452,
              25.0445097
            ],
            [
              121.5477618,
              25.0449569
            ],
            [
              121.546646,
              25.0451124
            ],
            [
              121.5457662,
              25.0449957
            ],
            [
              121.5439423,
              25.0448208
            ]
          ]
        ]
      },
      "properties": {
        "district": "大安區",
        "business_district": "東區商圈",
        "chairman_of_the_board": "簡國維",
        "tel": "0287716300",
        "addr": "台北市大安區復興南路135巷17號5樓",
        "area": "臺北"
      }
    },
    {
      "type": "Feature",
      "geometry": {
        "type": "Polygon",
        "coordinates": [
          [
            [
              121.5268895,
              25.0342475
            ],
            [
              121.5262887,
              25.0300285
            ],
            [
              121.5279195,
              25.0298341
            ],
            [
              121.5291211,
              25.0296202
            ],
            [
              121.5302798,
              25.0296008
            ],
            [
              121.5312025,
              25.0297563
            ],
            [
              121.5332839,
              25.0304174
            ],
            [
              121.5337774,
              25.0304368
            ],
            [
              121.5325973,
              25.033567
            ],
            [
              121.5313742,
              25.033567
            ],
            [
              121.5293357,
              25.033742
            ],
            [
              121.5270397,
              25.0341697
            ],
            [
              121.5268895,
              25.0342475
            ]
          ]
        ]
      },
      "properties": {
        "district": "大安區",
        "business_district": "永康(商圈)",
        "chairman_of_the_board": "李慶隆",
        "tel": "0223246472",
        "addr": "台北市大安區麗水街3號2樓",
        "area": "臺北"
      }
    },
    {
      "type": "Feature",
      "geometry": {
        "type": "Polygon",
        "coordinates": [
          [
            [
              121.528546,
              25.024709
            ],
            [
              121.529518,
              25.024717
            ],
            [
              121.529499,
              25.023524
            ],
            [
              121.528505,
              25.023605
            ],
            [
              121.528559,
              25.024254
            ],
            [
              121.528546,
              25.024709
            ]
          ]
        ]
      },
      "properties": {
        "district": "大安區",
        "business_district": "龍泉(商圈)",
        "chairman_of_the_board": "孫茂荃",
        "tel": "0287976128",
        "addr": "臺北市大安區泰順街40巷34號地樓",
        "area": "臺北"
      }
    },
    {
      "type": "Feature",
      "geometry": {
        "type": "Polygon",
        "coordinates": [
          [
            [
              121.5525225,
              25.0326925
            ],
            [
              121.5525332,
              25.0325078
            ],
            [
              121.5546253,
              25.032328
            ],
            [
              121.5559289,
              25.0321676
            ],
            [
              121.5573773,
              25.0320363
            ],
            [
              121.5573827,
              25.0322308
            ],
            [
              121.5559128,
              25.0323425
            ],
            [
              121.5545341,
              25.0324981
            ],
            [
              121.553826,
              25.0325613
            ],
            [
              121.5525225,
              25.0326925
            ]
          ]
        ]
      },
      "properties": {
        "district": "大安區",
        "business_district": "文昌家具(商圈)",
        "chairman_of_the_board": "劉松雄",
        "tel": "0227074529",
        "addr": "臺北市大安區文昌街248號",
        "area": "臺北"
      }
    },
    {
      "type": "Feature",
      "geometry": {
        "type": "Polygon",
        "coordinates": [
          [
            [
              121.58685106327732,
              24.96953655093239
            ],
            [
              121.59174769291968,
              24.97064628423402
            ],
            [
              121.59518322914153,
              24.96858789684724
            ],
            [
              121.59153134808707,
              24.965882675888764
            ],
            [
              121.58697037450781,
              24.966186967632012
            ],
            [
              121.58679267504027,
              24.96956992543302
            ],
            [
              121.58685106327732,
              24.96953655093239
            ]
          ]
        ]
      },
      "properties": {
        "district": "文山區",
        "business_district": "貓空(商圈)",
        "chairman_of_the_board": "張振隆",
        "tel": "0229395615",
        "addr": "臺北市文山區指南路三段38巷37之1號1樓",
        "area": "臺北"
      }
    },
    {
      "type": "Feature",
      "geometry": {
        "type": "Polygon",
        "coordinates": [
          [
            [
              121.5543032,
              25.0006132
            ],
            [
              121.553992,
              25.0000687
            ],
            [
              121.553874,
              24.9997964
            ],
            [
              121.5543568,
              24.9996214
            ],
            [
              121.5560305,
              24.9988143
            ],
            [
              121.5563524,
              24.9982601
            ],
            [
              121.5565455,
              24.9980559
            ],
            [
              121.558584,
              24.9972002
            ],
            [
              121.5587771,
              24.9969474
            ],
            [
              121.5589595,
              24.9965779
            ],
            [
              121.559732,
              24.996539
            ],
            [
              121.5610302,
              24.9969376
            ],
            [
              121.5607619,
              24.9971127
            ],
            [
              121.5599144,
              24.9973849
            ],
            [
              121.5594638,
              24.9978614
            ],
            [
              121.5591526,
              24.9984935
            ],
            [
              121.5589059,
              24.9990088
            ],
            [
              121.5584767,
              24.9992908
            ],
            [
              121.5577579,
              24.9997964
            ],
            [
              121.5571892,
              25.0001757
            ],
            [
              121.5565678,
              25.0005354
            ],
            [
              121.5557524,
              25.0008466
            ],
            [
              121.5552482,
              25.0011869
            ],
            [
              121.5550765,
              25.0014689
            ],
            [
              121.5547868,
              25.0015467
            ],
            [
              121.5543032,
              25.0006132
            ]
          ]
        ]
      },
      "properties": {
        "district": "文山區",
        "business_district": "萬芳(商圈)",
        "chairman_of_the_board": "曾瑞城",
        "tel": "0229355929",
        "addr": "臺北市文山區興隆路三段112巷2弄36號5樓",
        "area": "臺北"
      }
    },
    {
      "type": "Feature",
      "geometry": {
        "type": "Polygon",
        "coordinates": [
          [
            [
              121.4977419,
              25.0333597
            ],
            [
              121.4955961,
              25.0294178
            ],
            [
              121.4951938,
              25.0284991
            ],
            [
              121.4946359,
              25.0279547
            ],
            [
              121.4917981,
              25.0256167
            ],
            [
              121.490693,
              25.0247466
            ],
            [
              121.4920073,
              25.0218058
            ],
            [
              121.4929782,
              25.0196718
            ],
            [
              121.4935522,
              25.018369
            ],
            [
              121.494035,
              25.0176399
            ],
            [
              121.494829,
              25.0170031
            ],
            [
              121.4959823,
              25.016619
            ],
            [
              121.4967709,
              25.0179121
            ],
            [
              121.4984178,
              25.020644
            ],
            [
              121.4994692,
              25.0222384
            ],
            [
              121.5004562,
              25.0237744
            ],
            [
              121.5007245,
              25.0249167
            ],
            [
              121.5007245,
              25.0269388
            ],
            [
              121.5007352,
              25.0286012
            ],
            [
              121.500762,
              25.0297434
            ],
            [
              121.5007513,
              25.0318432
            ],
            [
              121.5007513,
              25.0326404
            ],
            [
              121.5007781,
              25.0331653
            ],
            [
              121.5003007,
              25.0331604
            ],
            [
              121.4996087,
              25.0331458
            ],
            [
              121.4990508,
              25.0331945
            ],
            [
              121.4983963,
              25.0333257
            ],
            [
              121.4977419,
              25.0333597
            ]
          ]
        ]
      },
      "properties": {
        "district": "萬華區",
        "business_district": "加蚋(商圈)",
        "chairman_of_the_board": "周孟儒",
        "tel": "0223096099",
        "addr": "臺北市萬華區長泰街7號1樓",
        "area": "臺北"
      }
    },
    {
      "type": "Feature",
      "geometry": {
        "type": "Polygon",
        "coordinates": [
          [
            [
              121.51908996458837,
              25.055450377966125
            ],
            [
              121.51968111131026,
              25.056824327704206
            ],
            [
              121.52198001631427,
              25.057083967260994
            ],
            [
              121.52248756530446,
              25.05608866977967
            ],
            [
              121.52214907287282,
              25.0530949526554
            ],
            [
              121.52011290082783,
              25.05327887161458
            ],
            [
              121.51910377171919,
              25.05548046973429
            ],
            [
              121.51908996458837,
              25.055450377966125
            ]
          ]
        ]
      },
      "properties": {
        "district": "大同區",
        "business_district": "赤峰",
        "chairman_of_the_board": "陳靜筠",
        "tel": "0225598984",
        "addr": "臺北市大同區赤峰街44巷13號1樓",
        "area": "臺北"
      }
    },
    {
      "type": "Feature",
      "geometry": {
        "type": "Polygon",
        "coordinates": [
          [
            [
              121.51205965409923,
              25.043609379869025
            ],
            [
              121.5135085259626,
              25.044095548319618
            ],
            [
              121.51437784907995,
              25.042209203962557
            ],
            [
              121.51298263913759,
              25.0412465737533
            ],
            [
              121.51201672456244,
              25.04358020970122
            ],
            [
              121.51205965409923,
              25.043609379869025
            ]
          ]
        ]
      },
      "properties": {
        "district": "中正區",
        "business_district": "榮町商圈",
        "chairman_of_the_board": "洪明通",
        "tel": "0223618368",
        "addr": "臺北市中正區衡陽路74號",
        "area": "臺北"
      }
    },
    {
      "type": "Feature",
      "geometry": {
        "type": "Polygon",
        "coordinates": [
          [
            [
              121.52812175799278,
              25.110005682113467
            ],
            [
              121.52929303073665,
              25.11044634536755
            ],
            [
              121.53062102307177,
              25.110237217241618
            ],
            [
              121.53168506471809,
              25.109243853892394
            ],
            [
              121.53107468314715,
              25.10817579242041
            ],
            [
              121.52896309360739,
              25.108631400821537
            ],
            [
              121.52812175799278,
              25.110005682113467
            ]
          ]
        ]
      },
      "properties": {
        "district": "士林區",
        "business_district": "蘭雅(商圈)",
        "chairman_of_the_board": "賴俊宇",
        "tel": "0979159111",
        "addr": "台北市士林區中山北路六段315巷50號",
        "area": "臺北"
      }
    }
  ]
}