{
  "type": "FeatureCollection",
  "features": [
    {
      "type": "Feature",
      "properties": {
        "city": "新北市",
        "district": "三芝區",
        "name": "三芝遊客中心及名人文物館",
        "address": "新北市三芝區埔坪里埔頭坑164-2號",
        "tel": "02-8635-5143",
        "friendly_items": "英文友善、行動裝置充電、無障礙友善、性別友善、友善廁所、Free WiFi、自行車友善、哺集乳友善、穆斯林友善",
        "intro": "三芝遊客中心位於群山環繞的山坡地上，全區視野遼闊，除了提供遊客舒適寬敞的休憩空間，也可進行遊諮詢、展場介紹與資料索取，方便又多元。主體建築仿唐代建築設計，色調古樸優雅，展現十足融合典與現代的特殊品味。名人文物館裡展示三芝四位名人的生平貢獻，有台灣首位醫學博士—杜聰明、台灣首位國際作曲家—江也、第一位直選總統—李登輝、政治先鋒—傳奇人物盧修一，藉著他們的生平故事，讓遊客了解更多關三芝的佳話美談，藉由名人文物館的氣息薰陶，享受心靈洗滌，擁有嶄新的知性遊憩方式。"
      },
      "geometry": {
        "type": "Point",
        "coordinates": [
          121.506153,
          25.258984
        ]
      }
    },
    {
      "type": "Feature",
      "properties": {
        "city": "新北市",
        "district": "石門區",
        "name": "白沙灣遊客中心",
        "address": "新北市石門區德茂里下員坑33-6號",
        "tel": "02-8635-5156",
        "friendly_items": "英文友善、日文友善、韓文友善、行動裝置充電、無障礙友善、性別友善、友善廁所、Free WiFi、自行車友善、哺集乳友善、穆斯林友善、月經友善",
        "intro": "位於白沙灣入口旁的北海岸及觀音山國家風景區管理處，設有白沙灣遊客中心，於2002年正式成立，為灣第11處國家風景區。整體建築不同於一般的設計規劃，建築層次與緩和的斜坡串連，將停車場、廣場沙灘的活動相互融合，減低建築高度視覺，提供屋頂草地與平台的活動空間，改善人與地景及建築的傳二元關係，讓建築像大樹岩石一樣融入地景，造型極具生態理念。"
      },
      "geometry": {
        "type": "Point",
        "coordinates": [
          121.519165,
          25.272739
        ]
      }
    },
    {
      "type": "Feature",
      "properties": {
        "city": "新北市",
        "district": "金山區",
        "name": "金山遊客中心",
        "address": "新北市金山區磺港路171-2號",
        "tel": "02-8635-5152 鐘小姐\n02-2498-8980",
        "friendly_items": "英文友善、日文友善、韓文友善、行動裝置充電、無障礙友善、性別友善、友善廁所、Free WiFi、自行車友善、哺集乳友善、穆斯林友善、月經友善",
        "intro": "金山遊客中心位於金山獅頭山海濱公園之入口，是健行獅頭山、賞燭臺雙嶼必經之處，假日期間遊客絡不絕，除了鄰近的金山獅頭山登山步道，可以鍛鍊體魄、保持身心健康。金山遊客中心的地利之便以及心和善的服務人員可提供您豐富充實的遊樂資訊，相信是您遊旅金山時最佳的旅遊小幫手，讓您的旅程加盡興舒暢。"
      },
      "geometry": {
        "type": "Point",
        "coordinates": [
          121.643804,
          25.224449
        ]
      }
    },
    {
      "type": "Feature",
      "properties": {
        "city": "新北市",
        "district": "萬里區",
        "name": "野柳遊客中心",
        "address": "新北市萬里區野柳里港東路167-1號",
        "tel": "02-2492-2016",
        "friendly_items": "英文友善、日文友善、韓文友善、行動裝置充電、無障礙友善、性別友善、便利支付、素食、友善廁所、公平貿易友善、Free WiFi、自行車友善、哺集乳友善、穆斯林友善、月經友善",
        "intro": "野柳地質公園，是來到萬里必訪的國際知名景點，全世界很難找到如此奇美的地景，因為海水侵蝕與岩石風化等影響，讓海邊變成地質教室和奇石樂園，風化石、風蝕溝、風蝕崖、孔穴，狹長的岬角，隨處走走，都有驚奇的發現。野柳遊客中心位於野柳地質公園旁，提供民眾服務諮詢及摺頁索取，及多媒體服務還有販售相關紀念品及飲料，供民眾稍作休息。"
      },
      "geometry": {
        "type": "Point",
        "coordinates": [
          121.69007,
          25.205444
        ]
      }
    },
    {
      "type": "Feature",
      "properties": {
        "city": "新北市",
        "district": "鶯歌區",
        "name": "新太源藝術工坊花紙文化館",
        "address": "新北市鶯歌區建國路485號\n新地址：239新北市鶯歌區建國路600號",
        "tel": "02-86774311",
        "friendly_items": "英文友善、日文友善、性別友善、便利支付、友善廁所、Free WiFi、自行車友善",
        "intro": "新太源從事陶瓷與玻璃轉寫印刷迄今50餘年，2004年投入陶藝創作市場，成立「新太源藝術工坊」，以積多年的厚實技術訴說原創題材，系列作品中往往得見在地特色，及多層次的溫潤美感。除了耕耘台灣更將觸角伸到歐美，並有計劃地結合在地豐富產業資源，推展文化觀光，致力讓陶藝創作的美善風華，進每戶人家。藝術創作的價值，往往不僅是藝術品的本身，更深刻的是與觀賞者的默默交流，平淡無奇蘊含千言萬語，生命一瞬深刻領略的美好感動。一只杯墊、一組杯組，轉型後的新太源，在生活用品的用底子裡添加藝術創作，讓不管是啜飲品嚐或是裝飾陳列間，都多了一份用心生活的怡然滋味。是經濟部中小企業處輔導之優良廠商，並將本公司定位為【新北市鶯歌鎮陶瓷特色產業】，同時也是中民國總統府及外交部致贈外賓之指定禮盒製造商。並於2014年通過新北市產品文化館-新太源藝術工坊花產業文化館。"
      },
      "geometry": {
        "type": "Point",
        "coordinates": [
          121.340023,
          24.952679
        ]
      }
    },
    {
      "type": "Feature",
      "properties": {
        "city": "新北市",
        "district": "八里區",
        "name": "新北市立十三行博物館",
        "address": "新北市八里區博物館路200號",
        "tel": "02-2619-1313#305\n02-2619-1313#303(韓小姐)",
        "friendly_items": "英文友善、日文友善、韓文友善、行動裝置充電、無障礙友善、性別友善、便利支付、友善廁所、Free WiFi、自行車友善、哺集乳友善、月經友善",
        "intro": "十三行博物館是北臺灣第一間考古博物館，除了文物展示解說，二樓常設展設有全國首創的兒童考古體室以及完整呈現八里從當代到史前時代的自然環境生態和文化歷史的超逼真實境體驗;此外，來到十三行不容錯過「海中奧秘-水下考古展暨水下考古虛擬實境(VR)」，全長14公尺的3D立體海底隧道、水下考古家的工作室和VR虛擬實境水下考古探險，精采、刺激一整天。"
      },
      "geometry": {
        "type": "Point",
        "coordinates": [
          121.405007,
          25.156995
        ]
      }
    },
    {
      "type": "Feature",
      "properties": {
        "city": "新北市",
        "district": "淡水區",
        "name": "新北市立淡水古蹟博物館",
        "address": "新北市淡水區中正路一段6巷32-2號(郵遞區號:251015)",
        "tel": "02-2621-2830#236",
        "friendly_items": "英文友善、行動裝置充電、無障礙友善、性別友善、便利支付、友善廁所、Free WiFi",
        "intro": "臺灣之窗，世界之門的淡水，是全臺灣文化資產高密度的地方，新北市立淡水古蹟博物館負責管理淡水區有形與無形文化資產，這些珍貴的建築與工藝記錄著自大航海時代以來臺灣與世界的連結，也見證了臺灣政治、經濟、文化等多元歷史。漫步在紅毛城為主的古建築群中，能感受到濃濃的異國風情，是中遊客必到訪之處。目前由博物館管理並對外開放參觀景點包括紅毛城、小白宮、滬尾礮臺、淡水海關碼園區、得忌利士洋行、藝術工坊、多田榮吉故居、滬水一方與程氏古厝等9處景點。"
      },
      "geometry": {
        "type": "Point",
        "coordinates": [
          121.42973,
          25.178576
        ]
      }
    },
    {
      "type": "Feature",
      "properties": {
        "city": "新北市",
        "district": "瑞芳區",
        "name": "新北市立黃金博物館",
        "address": "新北市瑞芳區金光路8號",
        "tel": "02-2496-2800#2818",
        "friendly_items": "英文友善、日文友善、韓文友善、行動裝置充電、無障礙友善、性別友善、友善廁所、哺集乳友善",
        "intro": "黃金博物館為國內第一座以生態博物館為理念的博物館，自2004年11月開館以來，本館一直以「生態博館」的理念，戮力於資源永續經營、生態旅遊，同時結合社區力量，盼能將金瓜石、水湳洞地區珍貴的然生態、礦業遺址、景觀風貌、歷史記憶及人文資產進行妥善的保存。"
      },
      "geometry": {
        "type": "Point",
        "coordinates": [
          121.859407,
          25.106259
        ]
      }
    },
    {
      "type": "Feature",
      "properties": {
        "city": "新北市",
        "district": "鶯歌區",
        "name": "新北市立鶯歌陶瓷博物館",
        "address": "新北市鶯歌區文化路200號",
        "tel": "02-8677-2727#858",
        "friendly_items": "英文友善、行動裝置充電、無障礙友善、性別友善、便利支付、Free WiFi、哺集乳友善、月經友善",
        "intro": "新北市立鶯歌陶瓷博物館為臺灣第一座陶瓷主題博物館，記錄臺灣陶瓷文化、展現鶯歌陶瓷特色。透過覽了解台灣陶瓷發展的故事以及國際陶藝與當代陶藝之美。館內設有陶藝研習室及兒童體驗室，可親手體驗創作的樂趣。在戶外的陶瓷藝術園區、三鶯藝術村，開民眾互動體驗，除展覽之外，規劃示範區，展現傳統製陶技法及國際陶藝家駐村創作，讓民眾擁有難忘陶瓷旅程。"
      },
      "geometry": {
        "type": "Point",
        "coordinates": [
          121.352214,
          24.949328
        ]
      }
    },
    {
      "type": "Feature",
      "properties": {
        "city": "新北市",
        "district": "五股區",
        "name": "觀音山遊客中心",
        "address": "新北市五股區凌雲路三段130號",
        "tel": "02-22928888#20#21",
        "friendly_items": "英文友善、日文友善、韓文友善、行動裝置充電、無障礙友善、性別友善、友善廁所、Free WiFi、自行車友善、哺集乳友善、穆斯林友善、月經友善",
        "intro": "位在凌雲路三段的觀音山遊客中心，紅瓦白牆的建築外觀，環抱在綠意蔥蔥的群山間，益顯得清麗脫俗，內部則展示觀音山旅遊資源、登山步道系統，以及觀音山史前人文活動暨周邊出土的遺址與史前陶器。\n為緬懷觀音山的採石歲月，服務中心旁規劃了一座石雕公園。園中並委託石雕家王秀杞先生創作「龍的傳人」的巨型石雕作品。其係由整塊觀音石切割雕刻後結合而成，高10公尺，直徑1.5公尺，各層雕刻主題各有不同，包括有台灣景觀、風景名勝、民俗技藝等，成為為觀音山的精神地標。當您來到這裡，不妨停下腳步欣賞一下用觀音山石表現出來的質樸美感。"
      },
      "geometry": {
        "type": "Point",
        "coordinates": [
          121.417856,
          25.129369
        ]
      }
    }
  ]
}